{"type": "FeatureCollection", "features": [ {"type": "Feature", "properties": {"norad_id": 38144, "name": "FENGYUN 1C DEB", "group": "fengyun-1c-debris", "lat": 57.456128341596795, "lon": 164.24723466288964, "alt_km": 1109.588192889646, "timestamp": "2025-12-20T18:51:32.003830+00:00", "meta": {"OBJECT_NAME": "FENGYUN 1C DEB", "OBJECT_ID": "1999-025EQR", "EPOCH": "2025-12-12T07:21:41.538528", "MEAN_MOTION": 13.59024242, "ECCENTRICITY": 0.02903277, "INCLINATION": 98.9688, "RA_OF_ASC_NODE": 170.8072, "ARG_OF_PERICENTER": 192.7812, "MEAN_ANOMALY": 166.5857, "EPHEMERIS_TYPE": 0, "CLASSIFICATION_TYPE": "U", "NORAD_CAT_ID": 38144, "ELEMENT_SET_NO": 999, "REV_AT_EPOCH": 61031, "BSTAR": 0.0024533733, "MEAN_MOTION_DOT": 2.337e-05, "MEAN_MOTION_DDOT": 0}, "tle": {"line1": "1 38144U 99025EQR 25346.30673077  .00002337  00000+0  24534-2 0  9992", "line2": "2 38144  98.9688 170.8072 0290327 192.7812 166.5857 13.59024242610319"}}, "geometry": {"type": "Point", "coordinates": [164.24723466288964, 57.456128341596795]}}, {"type": "Feature", "properties": {"norad_id": 38146, "name": "FENGYUN 1C DEB", "group": "fengyun-1c-debris", "lat": 3.241283270414267, "lon": 75.89992481366542, "alt_km": 659.3761314561434, "timestamp": "2025-12-20T18:51:32.003840+00:00", "meta": {"OBJECT_NAME": "FENGYUN 1C DEB", "OBJECT_ID": "1999-025EQT", "EPOCH": "2025-12-18T00:08:51.919008", "MEAN_MOTION": 14.59286747, "ECCENTRICITY": 0.02022294, "INCLINATION": 99.4834, "RA_OF_ASC_NODE": 73.268, "ARG_OF_PERICENTER": 87.2264, "MEAN_ANOMALY": 84.0387, "EPHEMERIS_TYPE": 0, "CLASSIFICATION_TYPE": "U", "NORAD_CAT_ID": 38146, "ELEMENT_SET_NO": 999, "REV_AT_EPOCH": 31956, "BSTAR": 0.00063226228, "MEAN_MOTION_DOT": 3.907e-05, "MEAN_MOTION_DDOT": 0}, "tle": {"line1": "1 38146U 99025EQT 25352.00615647  .00003907  00000+0  63226-3 0  9993", "line2": "2 38146  99.4834  73.2680 0202229  87.2264  84.0387 14.59286747319560"}}, "geometry": {"type": "Point", "coordinates": [75.89992481366542, 3.241283270414267]}}, {"type": "Feature", "properties": {"norad_id": 38147, "name": "FENGYUN 1C DEB", "group": "fengyun-1c-debris", "lat": -34.28668963664906, "lon": -177.10295192066425, "alt_km": 802.8054696637628, "timestamp": "2025-12-20T18:51:32.003850+00:00", "meta": {"OBJECT_NAME": "FENGYUN 1C DEB", "OBJECT_ID": "1999-025EQU", "EPOCH": "2025-12-20T07:43:36.428160", "MEAN_MOTION": 14.2346331, "ECCENTRICITY": 0.004968, "INCLINATION": 98.5569, "RA_OF_ASC_NODE": 8.3381, "ARG_OF_PERICENTER": 277.7736, "MEAN_ANOMALY": 81.7804, "EPHEMERIS_TYPE": 0, "CLASSIFICATION_TYPE": "U", "NORAD_CAT_ID": 38147, "ELEMENT_SET_NO": 999, "REV_AT_EPOCH": 60495, "BSTAR": 0.0004285192, "MEAN_MOTION_DOT": 9.43e-06, "MEAN_MOTION_DDOT": 0}, "tle": {"line1": "1 38147U 99025EQU 25354.32194940  .00000943  00000+0  42852-3 0  9998", "line2": "2 38147  98.5569   8.3381 0049680 277.7736  81.7804 14.23463310604955"}}, "geometry": {"type": "Point", "coordinates": [-177.10295192066425, -34.28668963664906]}}, {"type": "Feature", "properties": {"norad_id": 38149, "name": "FENGYUN 1C DEB", "group": "fengyun-1c-debris", "lat": 65.97074381769842, "lon": -32.601018793433575, "alt_km": 779.5711840277563, "timestamp": "2025-12-20T18:51:32.003860+00:00", "meta": {"OBJECT_NAME": "FENGYUN 1C DEB", "OBJECT_ID": "1999-025EQW", "EPOCH": "2025-12-07T17:18:01.960128", "MEAN_MOTION": 14.25910713, "ECCENTRICITY": 0.00777044, "INCLINATION": 98.3566, "RA_OF_ASC_NODE": 334.1881, "ARG_OF_PERICENTER": 175.9559, "MEAN_ANOMALY": 184.2267, "EPHEMERIS_TYPE": 0, "CLASSIFICATION_TYPE": "U", "NORAD_CAT_ID": 38149, "ELEMENT_SET_NO": 999, "REV_AT_EPOCH": 70416, "BSTAR": 0.00036135678, "MEAN_MOTION_DOT": 8.47e-06, "MEAN_MOTION_DDOT": 0}, "tle": {"line1": "1 38149U 99025EQW 25341.72085602  .00000847  00000+0  36136-3 0  9995", "line2": "2 38149  98.3566 334.1881 0077704 175.9559 184.2267 14.25910713704169"}}, "geometry": {"type": "Point", "coordinates": [-32.601018793433575, 65.97074381769842]}}, {"type": "Feature", "properties": {"norad_id": 38155, "name": "FENGYUN 1C DEB", "group": "fengyun-1c-debris", "lat": -18.849061288186945, "lon": -98.26115611738311, "alt_km": 850.266132949967, "timestamp": "2025-12-20T18:51:32.003870+00:00", "meta": {"OBJECT_NAME": "FENGYUN 1C DEB", "OBJECT_ID": "1999-025ERC", "EPOCH": "2025-12-18T23:08:16.383264", "MEAN_MOTION": 14.25112386, "ECCENTRICITY": 0.00979258, "INCLINATION": 98.4473, "RA_OF_ASC_NODE": 257.0769, "ARG_OF_PERICENTER": 108.7402, "MEAN_ANOMALY": 252.4435, "EPHEMERIS_TYPE": 0, "CLASSIFICATION_TYPE": "U", "NORAD_CAT_ID": 38155, "ELEMENT_SET_NO": 999, "REV_AT_EPOCH": 63864, "BSTAR": 0.0016814228, "MEAN_MOTION_DOT": 4.107e-05, "MEAN_MOTION_DDOT": 0}, "tle": {"line1": "1 38155U 99025ERC 25352.96407851  .00004107  00000+0  16814-2 0  9997", "line2": "2 38155  98.4473 257.0769 0097925 108.7402 252.4435 14.25112386638644"}}, "geometry": {"type": "Point", "coordinates": [-98.26115611738311, -18.849061288186945]}}, {"type": "Feature", "properties": {"norad_id": 38157, "name": "FENGYUN 1C DEB", "group": "fengyun-1c-debris", "lat": -62.50185415953373, "lon": -78.39736082148103, "alt_km": 1005.7534218519422, "timestamp": "2025-12-20T18:51:32.003880+00:00", "meta": {"OBJECT_NAME": "FENGYUN 1C DEB", "OBJECT_ID": "1999-025ERE", "EPOCH": "2025-12-18T23:15:19.062432", "MEAN_MOTION": 14.21759135, "ECCENTRICITY": 0.02742522, "INCLINATION": 99.6569, "RA_OF_ASC_NODE": 260.5201, "ARG_OF_PERICENTER": 96.8894, "MEAN_ANOMALY": 266.356, "EPHEMERIS_TYPE": 0, "CLASSIFICATION_TYPE": "U", "NORAD_CAT_ID": 38157, "ELEMENT_SET_NO": 999, "REV_AT_EPOCH": 76336, "BSTAR": 0.00050562821, "MEAN_MOTION_DOT": 1.574e-05, "MEAN_MOTION_DDOT": 0}, "tle": {"line1": "1 38157U 99025ERE 25352.96897063  .00001574  00000+0  50563-3 0  9992", "line2": "2 38157  99.6569 260.5201 0274252  96.8894 266.3560 14.21759135763363"}}, "geometry": {"type": "Point", "coordinates": [-78.39736082148103, -62.50185415953373]}}, {"type": "Feature", "properties": {"norad_id": 38159, "name": "FENGYUN 1C DEB", "group": "fengyun-1c-debris", "lat": -16.00307468361027, "lon": 63.9327000854118, "alt_km": 908.5438032291358, "timestamp": "2025-12-20T18:51:32.003890+00:00", "meta": {"OBJECT_NAME": "FENGYUN 1C DEB", "OBJECT_ID": "1999-025ERG", "EPOCH": "2025-12-04T22:05:20.152032", "MEAN_MOTION": 14.03448484, "ECCENTRICITY": 0.005704, "INCLINATION": 99.3156, "RA_OF_ASC_NODE": 230.39, "ARG_OF_PERICENTER": 2.347, "MEAN_ANOMALY": 357.7952, "EPHEMERIS_TYPE": 0, "CLASSIFICATION_TYPE": "U", "NORAD_CAT_ID": 38159, "ELEMENT_SET_NO": 999, "REV_AT_EPOCH": 83002, "BSTAR": 0.0010527, "MEAN_MOTION_DOT": 1.625e-05, "MEAN_MOTION_DDOT": 0}, "tle": {"line1": "1 38159U 99025ERG 25338.92037213  .00001625  00000+0  10527-2 0  9999", "line2": "2 38159  99.3156 230.3900 0057040   2.3470 357.7952 14.03448484830021"}}, "geometry": {"type": "Point", "coordinates": [63.9327000854118, -16.00307468361027]}}, {"type": "Feature", "properties": {"norad_id": 38163, "name": "FENGYUN 1C DEB", "group": "fengyun-1c-debris", "lat": -7.240557675119178, "lon": -149.79416941530292, "alt_km": 830.4339346943334, "timestamp": "2025-12-20T18:51:32.003900+00:00", "meta": {"OBJECT_NAME": "FENGYUN 1C DEB", "OBJECT_ID": "1999-025ERL", "EPOCH": "2025-12-18T21:33:29.990592", "MEAN_MOTION": 14.05931251, "ECCENTRICITY": 0.00762702, "INCLINATION": 99.1281, "RA_OF_ASC_NODE": 29.4748, "ARG_OF_PERICENTER": 225.191, "MEAN_ANOMALY": 134.304, "EPHEMERIS_TYPE": 0, "CLASSIFICATION_TYPE": "U", "NORAD_CAT_ID": 38163, "ELEMENT_SET_NO": 999, "REV_AT_EPOCH": 24628, "BSTAR": 0.00077081788, "MEAN_MOTION_DOT": 1.25e-05, "MEAN_MOTION_DDOT": 0}, "tle": {"line1": "1 38163U 99025ERL 25352.89826378  .00001250  00000+0  77082-3 0  9998", "line2": "2 38163  99.1281  29.4748 0076270 225.1910 134.3040 14.05931251246287"}}, "geometry": {"type": "Point", "coordinates": [-149.79416941530292, -7.240557675119178]}}, {"type": "Feature", "properties": {"norad_id": 38166, "name": "FENGYUN 1C DEB", "group": "fengyun-1c-debris", "lat": 71.15539783859037, "lon": 70.28361168338543, "alt_km": 758.8243276615794, "timestamp": "2025-12-20T18:51:32.003910+00:00", "meta": {"OBJECT_NAME": "FENGYUN 1C DEB", "OBJECT_ID": "1999-025ERP", "EPOCH": "2025-12-20T00:03:42.377184", "MEAN_MOTION": 14.31032215, "ECCENTRICITY": 0.00518518, "INCLINATION": 99.0785, "RA_OF_ASC_NODE": 97.4018, "ARG_OF_PERICENTER": 22.7918, "MEAN_ANOMALY": 337.5549, "EPHEMERIS_TYPE": 0, "CLASSIFICATION_TYPE": "U", "NORAD_CAT_ID": 38166, "ELEMENT_SET_NO": 999, "REV_AT_EPOCH": 63876, "BSTAR": 0.0016550954, "MEAN_MOTION_DOT": 4.376e-05, "MEAN_MOTION_DDOT": 0}, "tle": {"line1": "1 38166U 99025ERP 25354.00257381  .00004376  00000+0  16551-2 0  9993", "line2": "2 38166  99.0785  97.4018 0051851  22.7918 337.5549 14.31032215638760"}}, "geometry": {"type": "Point", "coordinates": [70.28361168338543, 71.15539783859037]}}, {"type": "Feature", "properties": {"norad_id": 38169, "name": "FENGYUN 1C DEB", "group": "fengyun-1c-debris", "lat": -55.27540846825235, "lon": -16.98930788007588, "alt_km": 666.5615208794197, "timestamp": "2025-12-20T18:51:32.003920+00:00", "meta": {"OBJECT_NAME": "FENGYUN 1C DEB", "OBJECT_ID": "1999-025ERS", "EPOCH": "2025-12-17T04:37:40.598400", "MEAN_MOTION": 14.71570377, "ECCENTRICITY": 0.00320132, "INCLINATION": 98.9779, "RA_OF_ASC_NODE": 325.865, "ARG_OF_PERICENTER": 54.7995, "MEAN_ANOMALY": 305.6199, "EPHEMERIS_TYPE": 0, "CLASSIFICATION_TYPE": "U", "NORAD_CAT_ID": 38169, "ELEMENT_SET_NO": 999, "REV_AT_EPOCH": 61334, "BSTAR": 0.002130707, "MEAN_MOTION_DOT": 0.00013312, "MEAN_MOTION_DDOT": 0}, "tle": {"line1": "1 38169U 99025ERS 25351.19283100  .00013312  00000+0  21307-2 0  9996", "line2": "2 38169  98.9779 325.8650 0032013  54.7995 305.6199 14.71570377613347"}}, "geometry": {"type": "Point", "coordinates": [-16.98930788007588, -55.27540846825235]}}]}